OBJECT_NAME,OBJECT_ID,EPOCH,MEAN_MOTION,ECCENTRICITY,INCLINATION,RA_OF_ASC_NODE,ARG_OF_PERICENTER,MEAN_ANOMALY,EPHEMERIS_TYPE,CLASSIFICATION_TYPE,NORAD_CAT_ID,ELEMENT_SET_NO,REV_AT_EPOCH,BSTAR,MEAN_MOTION_DOT,MEAN_MOTION_DDOT
ORBCOMM FM06,1997-084G,2026-06-07T13:41:00.673152,14.47539442,.0001942,45.0135,99.0078,302.3039,227.2870,0,U,25118,999,49299,.45249E-3,.1535E-4,0
ORBCOMM FM04,1998-007C,2026-06-07T17:02:01.169664,14.35724641,.004103,107.9626,149.9137,341.1013,18.8603,0,U,25159,999,47523,.42498E-3,.1109E-4,0
ORBCOMM FM19,1998-046C,2026-06-07T15:12:45.040896,14.39481576,.0004249,44.9943,288.9711,243.4564,130.6337,0,U,25415,999,45540,.37919E-3,.105E-4,0
ORBCOMM FM20,1998-046D,2026-06-07T01:53:15.315936,14.38052845,.0001612,44.9949,299.4212,215.8377,144.2363,0,U,25416,999,45533,.27803E-3,.707E-5,0
ORBCOMM FM27,1998-053G,2026-06-07T07:55:15.799872,14.39123385,.0000206,45.0065,22.1708,70.4841,289.6030,0,U,25481,999,44881,.39334E-3,.1086E-4,0
ORBCOMM FM32,1999-065C,2026-06-06T10:42:07.096608,14.37118027,.00052173,45.0145,224.0828,341.0890,18.9763,0,U,25982,999,38554,.25554997E-3,.624E-5,0
ORBCOMM FM109,2014-040A,2026-06-07T15:31:40.171872,14.58835678,.0001614,47.0017,136.5918,218.1461,141.9311,0,U,40086,999,63295,.19679E-3,.759E-5,0
ORBCOMM FM114,2015-081A,2026-06-07T09:22:05.859840,14.58847401,.0001912,47.0058,48.3219,164.9943,195.1000,0,U,41179,999,55632,.1587E-3,.579E-5,0
ORBCOMM FM110,2015-081D,2026-06-07T09:05:34.559808,14.58864970,.0002922,47.0029,47.8183,20.9160,339.1845,0,U,41182,999,55619,.21433E-3,.842E-5,0
ORBCOMM FM118,2015-081E,2026-06-05T23:23:50.578944,14.58872006,.00031663,47.0105,54.7867,344.4390,15.6398,0,U,41183,999,55609,.71149315E-3,.3194E-4,0
ORBCOMM FM112,2015-081F,2026-06-07T16:36:11.602944,14.58890878,.0003124,47.0001,315.1475,175.6095,184.4819,0,U,41184,999,55756,.20932E-3,.819E-5,0
ORBCOMM FM113,2015-081G,2026-06-07T17:40:44.304096,14.58849261,.0001716,47.0018,315.3072,186.1419,173.9446,0,U,41185,999,55755,.16815E-3,.624E-5,0
ORBCOMM FM108,2015-081J,2026-06-05T12:10:49.508544,14.58857926,.00023101,47.0046,237.4186,171.2053,188.8874,0,U,41187,999,55837,.18440415E-3,.7E-5,0
ORBCOMM FM117,2015-081K,2026-06-07T11:01:08.303232,14.58857481,.0002951,47.0005,226.8283,182.2940,177.7932,0,U,41188,999,55870,.16854E-3,.625E-5,0
ORBCOMM FM116,2015-081L,2026-06-07T17:07:36.100992,14.58869594,.0001122,47.0035,315.4145,3.5235,356.5659,0,U,41189,999,55755,.21737E-3,.857E-5,0
